NORAD_CAT_ID,OBJECT_NAME,OBJECT_TYPE,EPOCH,MEAN_MOTION,ECCENTRICITY,INCLINATION,RA_OF_ASC_NODE,ARG_OF_PERICENTER,MEAN_ANOMALY,BSTAR,MEAN_MOTION_DOT,MEAN_MOTION_DDOT,TLE_LINE0,TLE_LINE1,TLE_LINE2,SEMIMAJOR_AXIS,PERIOD,APOGEE,PERIGEE,DECAYED
54780.0,STARLINK-5449,PAYLOAD,2023-01-08 21:25:34,15.73225356,0.0001012,53.2126,196.8526,60.3147,299.7974,0.00015035,0.00020555,0.0,0 STARLINK-5449,1 54780U 22175Y   23008.89276064  .00020555  00000-0  15035-3 0  9990,2 54780  53.2126 196.8526 0001012  60.3147 299.7974 15.73225356  5378,6727.823,91.532,350.369,349.00699999999995,0.0
54780.0,STARLINK-5449,PAYLOAD,2023-01-09 05:02:58,15.73215216,0.000194,53.2132,195.2832,65.9168,294.2054,8.251399999999999e-05,0.00010982,0.0,0 STARLINK-5449,1 54780U 22175Y   23009.21040248  .00010982  00000-0  82514-4 0  9990,2 54780  53.2132 195.2832 0001940  65.9168 294.2054 15.73215216  3261,6727.852,91.532,351.022,348.412,0.0
54780.0,STARLINK-5449,PAYLOAD,2023-01-10 05:26:39,15.7321875,0.0002096,53.214,190.2505,60.0541,300.0687,3.9589e-05,4.943e-05,0.0,0 STARLINK-5449,1 54780U 22175Y   23010.22684278  .00004943  00000-0  39589-4 0  9994,2 54780  53.2140 190.2505 0002096  60.0541 300.0687 15.73218750  3428,6727.842,91.532,351.117,348.297,0.0
54780.0,STARLINK-5449,PAYLOAD,2023-01-10 20:41:27,15.73196211,0.0002095,53.2112,187.1083,55.6274,304.4944,7.4008e-06,4.17e-06,0.0,0 STARLINK-5449,1 54780U 22175Y   23010.86212644  .00000417  00000-0  74008-5 0  9996,2 54780  53.2112 187.1083 0002095  55.6274 304.4944 15.73196211  5686,6727.906,91.533,351.18,348.361,0.0
54780.0,STARLINK-5449,PAYLOAD,2023-01-11 18:02:10,15.73159207,0.0001025,53.2131,182.7053,62.8267,297.2858,-0.00015465,-0.00022227,0.0,0 STARLINK-5449,1 54780U 22175Y   23011.75151519 -.00022227  00000-0 -15465-3 0  9993,2 54780  53.2131 182.7053 0001025  62.8267 297.2858 15.73159207  3662,6728.011,91.536,350.566,349.1869999999999,0.0
54780.0,STARLINK-5449,PAYLOAD,2023-01-11 21:05:08,15.73151485,0.000148,53.2137,182.0764,70.6611,289.4569,-0.0001631999999999,-0.00023413,0.0,0 STARLINK-5449,1 54780U 22175Y   23011.87857470 -.00023413  00000-0 -16320-3 0  9994,2 54780  53.2137 182.0764 0001480  70.6611 289.4569 15.73151485  5849,6728.033,91.536,350.894,348.903,0.0
54780.0,STARLINK-5449,PAYLOAD,2023-01-12 19:57:21,15.73196093,2.28e-05,53.2139,177.3621,151.2906,208.8127,3.4967e-05,4.291e-05,0.0,0 STARLINK-5449,1 54780U 22175Y   23012.83149723  .00004291  00000-0  34967-4 0  9995,2 54780  53.2139 177.3621 0000228 151.2906 208.8127 15.73196093  3838,6727.906,91.533,349.925,349.61800000000005,0.0
54780.0,STARLINK-5449,PAYLOAD,2023-01-13 03:34:45,15.73209228,1.75e-05,53.2145,175.7909,121.2952,238.8086,9.7823e-05,0.00013137,0.0,0 STARLINK-5449,1 54780U 22175Y   23013.14913718  .00013137  00000-0  97823-4 0  9992,2 54780  53.2145 175.7909 0000175 121.2952 238.8086 15.73209228  3882,6727.869000000001,91.533,349.852,349.616,0.0
54780.0,STARLINK-5449,PAYLOAD,2023-01-14 19:13:15,15.73212789,0.000237,53.2125,167.6155,80.3599,279.7689,3.8479e-05,4.785e-05,0.0,0 STARLINK-5449,1 54780U 22175Y   23014.80087201  .00004785  00000-0  38479-4 0  9996,2 54780  53.2125 167.6155 0002370  80.3599 279.7689 15.73212789  4143,6727.859,91.532,351.31800000000004,348.129,0.0
54780.0,STARLINK-5449,PAYLOAD,2023-01-15 13:31:00,15.73220574,9.79e-05,53.216,163.8399,59.631,300.4807,3.8434e-05,4.782e-05,0.0,0 STARLINK-5449,1 54780U 22175Y   23015.56319616  .00004782  00000-0  38434-4 0  9996,2 54780  53.2160 163.8399 0000979  59.6310 300.4807 15.73220574  6421,6727.837,91.532,350.36,349.043,0.0
54780.0,STARLINK-5449,PAYLOAD,2023-01-15 18:05:27,15.73169998,6.21e-05,53.215,162.8998,26.1753,333.9298,-8.983299999999999e-05,-0.00013189,0.0,0 STARLINK-5449,1 54780U 22175Y   23015.75379349 -.00013189  00000-0 -89833-4 0  9998,2 54780  53.2150 162.8998 0000621  26.1753 333.9298 15.73169998  4298,6727.981,91.535,350.264,349.42800000000005,0.0
54780.0,STARLINK-5449,PAYLOAD,2023-01-16 16:57:39,15.73199042,0.0001312,53.2153,158.1831,71.3757,288.7406,-7.8515e-06,-1.722e-05,0.0,0 STARLINK-5449,1 54780U 22175Y   23016.70670817 -.00001722  00000-0 -78515-5 0  9994,2 54780  53.2153 158.1831 0001312  71.3757 288.7406 15.73199042  4447,6727.898,91.533,350.646,348.88,0.0
54780.0,STARLINK-5449,PAYLOAD,2023-01-17 08:12:28,15.73194416,0.0001042,53.2147,155.0399,68.1771,291.936,5.1104e-06,9.8e-07,0.0,0 STARLINK-5449,1 54780U 22175Y   23017.34199518  .00000098  00000-0  51104-5 0  9997,2 54780  53.2147 155.0399 0001042  68.1771 291.9360 15.73194416  6701,6727.911,91.534,350.477,349.075,0.0
54780.0,STARLINK-5449,PAYLOAD,2023-01-17 15:49:50,15.73264939,6.77e-05,53.2138,153.4677,40.4182,319.6888,0.00018286,0.00025191,0.0,0 STARLINK-5449,1 54780U 22175Y   23017.65961274  .00025191  00000-0  18286-3 0  9990,2 54780  53.2138 153.4677 0000677  40.4182 319.6888 15.73264939  4590,6727.71,91.529,350.031,349.12,0.0
54780.0,STARLINK-5449,PAYLOAD,2023-01-18 19:16:29,15.73207403,0.0001615,53.2141,147.8105,58.3753,301.7425,6.081e-06,2.33e-06,0.0,0 STARLINK-5449,1 54780U 22175Y   23018.80312423  .00000233  00000-0  60810-5 0  9996,2 54780  53.2141 147.8105 0001615  58.3753 301.7425 15.73207403  4774,6727.874,91.533,350.826,348.653,0.0
54780.0,STARLINK-5449,PAYLOAD,2023-01-18 20:47:58,15.73217928,0.0001538,53.2148,147.4951,52.5741,307.5419,2.3435e-05,2.672e-05,0.0,0 STARLINK-5449,1 54780U 22175Y   23018.86664375  .00002672  00000-0  23435-4 0  9998,2 54780  53.2148 147.4951 0001538  52.5741 307.5419 15.73217928  6944,6727.844,91.532,350.744,348.67400000000004,0.0
54780.0,STARLINK-5449,PAYLOAD,2023-01-19 12:02:46,15.73189502,7.68e-05,53.2143,144.3505,69.0969,291.0133,-8.7045e-05,-0.0001281,0.0,0 STARLINK-5449,1 54780U 22175Y   23019.50192545 -.00012810  00000-0 -87045-4 0  9999,2 54780  53.2143 144.3505 0000768  69.0969 291.0133 15.73189502  7047,6727.925,91.534,350.307,349.273,0.0
54780.0,STARLINK-5449,PAYLOAD,2023-01-19 15:05:45,15.73173804,0.0001211999999999,53.2153,143.7236,62.7123,297.4021,-9.2981e-05,-0.00013633,0.0,0 STARLINK-5449,1 54780U 22175Y   23019.62899832 -.00013633  00000-0 -92981-4 0  9994,2 54780  53.2153 143.7236 0001212  62.7123 297.4021 15.73173804  4905,6727.97,91.535,350.65,349.019,0.0
54780.0,STARLINK-5449,PAYLOAD,2023-01-20 10:54:59,15.73239006,0.0001395999999999,53.2155,139.6383,76.6537,283.4639,0.00014138,0.000193,0.0,0 STARLINK-5449,1 54780U 22175Y   23020.45485683  .00019300  00000-0  14138-3 0  9994,2 54780  53.2155 139.6383 0001396  76.6537 283.4639 15.73239006  5032,6727.784000000001,91.531,350.588,348.71,0.0
54780.0,STARLINK-5449,PAYLOAD,2023-01-20 17:00:54,15.73205262,2.34e-05,53.2153,138.3796,357.7204,2.3815,3.7623e-05,4.666e-05,0.0,0 STARLINK-5449,1 54780U 22175Y   23020.70896683  .00004666  00000-0  37623-4 0  9992,2 54780  53.2153 138.3796 0000234 357.7204   2.3815 15.73205262  5073,6727.88,91.533,349.903,349.588,0.0
54780.0,STARLINK-5449,PAYLOAD,2023-01-21 00:38:18,15.73220602,6.25e-05,53.2155,136.8069,57.8241,302.284,5.8407e-05,7.592e-05,0.0,0 STARLINK-5449,1 54780U 22175Y   23021.02660014  .00007592  00000-0  58407-4 0  9999,2 54780  53.2155 136.8069 0000625  57.8241 302.2840 15.73220602  5125,6727.835999999999,91.532,350.122,349.281,0.0
54780.0,STARLINK-5449,PAYLOAD,2023-01-21 11:18:41,15.7314864,0.0001652,53.2158,134.6065,124.4395,235.6781,-0.00013543,-0.00019541,0.0,0 STARLINK-5449,1 54780U 22175Y   23021.47131828 -.00019541  00000-0 -13543-3 0  9994,2 54780  53.2158 134.6065 0001652 124.4395 235.6781 15.73148640  5193,6728.042,91.536,351.01800000000003,348.795,0.0
54780.0,STARLINK-5449,PAYLOAD,2023-01-21 15:53:04,15.73288809,0.000153,53.2158,133.6632,73.3871,286.7317,0.00018809,0.00025959,0.0,0 STARLINK-5449,1 54780U 22175Y   23021.66185607  .00025959  00000-0  18809-3 0  9997,2 54780  53.2158 133.6632 0001530  73.3871 286.7317 15.73288809  5226,6727.642,91.528,350.536,348.478,0.0
54780.0,STARLINK-5449,PAYLOAD,2023-01-22 10:10:51,15.73217233,0.0001331999999999,53.216,129.8913,98.1356,261.9816,-2.8224e-05,-4.582e-05,0.0,0 STARLINK-5449,1 54780U 22175Y   23022.42421090 -.00004582  00000-0 -28224-4 0  9995,2 54780  53.2160 129.8913 0001332  98.1356 261.9816 15.73217233  5346,6727.846,91.532,350.607,348.815,0.0
54780.0,STARLINK-5449,PAYLOAD,2023-01-22 14:45:17,15.73225678,0.0001102,53.2157,128.9472,85.8372,274.2774,5.275e-06,1.21e-06,0.0,0 STARLINK-5449,1 54780U 22175Y   23022.61479074  .00000121  00000-0  52750-5 0  9996,2 54780  53.2157 128.9472 0001102  85.8372 274.2774 15.73225678  5373,6727.821999999999,91.532,350.42800000000005,348.946,0.0
54780.0,STARLINK-5449,PAYLOAD,2023-01-22 23:54:10,15.732162900000002,8.170000000000001e-05,53.2161,127.0612,82.4434,277.6679,-1.622e-05,-2.896e-05,0.0,0 STARLINK-5449,1 54780U 22175Y   23022.99595751 -.00002896  00000-0 -16220-4 0  9992,2 54780  53.2161 127.0612 0000817  82.4434 277.6679 15.73216290  5436,6727.849,91.532,350.26300000000003,349.164,0.0
54780.0,STARLINK-5449,PAYLOAD,2023-01-23 16:40:28,15.73192025,0.0001234,53.216,123.6048,114.3354,245.7795,-1.6389000000000002e-05,-2.918e-05,0.0,0 STARLINK-5449,1 54780U 22175Y   23023.69477848 -.00002918  00000-0 -16389-4 0  9997,2 54780  53.2160 123.6048 0001234 114.3354 245.7795 15.73192025  5546,6727.918000000001,91.534,350.61300000000006,348.95300000000003,0.0
54780.0,STARLINK-5449,PAYLOAD,2023-01-24 10:58:14,15.73189694,0.0001669,53.2162,119.8309,105.7172,254.4032,-4.0654e-05,-6.319e-05,0.0,0 STARLINK-5449,1 54780U 22175Y   23024.45710926 -.00006319  00000-0 -40654-4 0  9990,2 54780  53.2162 119.8309 0001669 105.7172 254.4032 15.73189694  5661,6727.925,91.534,350.912,348.667,0.0
54780.0,STARLINK-5449,PAYLOAD,2023-01-24 12:29:42,15.73201534,0.000145,53.216,119.5166,92.0292,268.0894,-6.0236e-06,-1.465e-05,0.0,0 STARLINK-5449,1 54780U 22175Y   23024.52063560 -.00001465  00000-0 -60236-5 0  9999,2 54780  53.2160 119.5166 0001450  92.0292 268.0894 15.73201534  5672,6727.891,91.533,350.731,348.78,0.0
